ASTROCAST-0403          
1 55111U 23001DG  26068.82333059  .00013959  00000+0  51317-3 0  9990
2 55111  97.5604 161.3228 0004771 338.0704  22.0330 15.28004949129377
STARLINK-34032          
1 63853U 25093T   26068.36007504  .00037486  00000+0  13635-2 0  9998
2 63853  43.0041  79.5819 0001692 279.4228  80.6433 15.27612498 47921
